{"type": "FeatureCollection", "features": [ {"type": "Feature", "properties": {"norad_id": 67141, "name": "KUIPER-00187", "group": "last-30-days", "lat": -18.03775309572318, "lon": -106.93079476293016, "alt_km": 460.9128284443959, "timestamp": "2025-12-26T14:28:46.399918+00:00", "meta": {"OBJECT_NAME": "KUIPER-00187", "OBJECT_ID": "2025-301J", "EPOCH": "2025-12-26T04:13:45.825312", "MEAN_MOTION": 15.35833393, "ECCENTRICITY": 0.00043295, "INCLINATION": 51.8713, "RA_OF_ASC_NODE": 60.3104, "ARG_OF_PERICENTER": 116.5502, "MEAN_ANOMALY": 243.5929, "EPHEMERIS_TYPE": 0, "CLASSIFICATION_TYPE": "U", "NORAD_CAT_ID": 67141, "ELEMENT_SET_NO": 999, "REV_AT_EPOCH": 243, "BSTAR": 0.00049996567, "MEAN_MOTION_DOT": 0.0001736, "MEAN_MOTION_DDOT": 0}, "tle": {"line1": "1 67141U 25301J   25360.17622483  .00017360  00000+0  49997-3 0  9996", "line2": "2 67141  51.8713  60.3104 0004329 116.5502 243.5929 15.35833393  2434"}}, "geometry": {"type": "Point", "coordinates": [-106.93079476293016, -18.03775309572318]}}, {"type": "Feature", "properties": {"norad_id": 67142, "name": "KUIPER-00188", "group": "last-30-days", "lat": 8.05876257016362, "lon": -128.0677063473171, "alt_km": 456.4629665861312, "timestamp": "2025-12-26T14:28:46.399929+00:00", "meta": {"OBJECT_NAME": "KUIPER-00188", "OBJECT_ID": "2025-301K", "EPOCH": "2025-12-26T05:55:52.443264", "MEAN_MOTION": 15.34933642, "ECCENTRICITY": 0.00073705, "INCLINATION": 51.8693, "RA_OF_ASC_NODE": 60.0347, "ARG_OF_PERICENTER": 136.0162, "MEAN_ANOMALY": 224.1411, "EPHEMERIS_TYPE": 0, "CLASSIFICATION_TYPE": "U", "NORAD_CAT_ID": 67142, "ELEMENT_SET_NO": 999, "REV_AT_EPOCH": 244, "BSTAR": 0.00064901593, "MEAN_MOTION_DOT": 0.00022025, "MEAN_MOTION_DDOT": 0}, "tle": {"line1": "1 67142U 25301K   25360.24713476  .00022025  00000+0  64902-3 0  9995", "line2": "2 67142  51.8693  60.0347 0007370 136.0162 224.1411 15.34933642  2445"}}, "geometry": {"type": "Point", "coordinates": [-128.0677063473171, 8.05876257016362]}}, {"type": "Feature", "properties": {"norad_id": 67143, "name": "KUIPER-00191", "group": "last-30-days", "lat": 1.236932867777659, "lon": -122.6709948444314, "alt_km": 457.71014097625357, "timestamp": "2025-12-26T14:28:46.399939+00:00", "meta": {"OBJECT_NAME": "KUIPER-00191", "OBJECT_ID": "2025-301L", "EPOCH": "2025-12-26T05:53:41.311392", "MEAN_MOTION": 15.35163577, "ECCENTRICITY": 0.0006641, "INCLINATION": 51.8673, "RA_OF_ASC_NODE": 60.0257, "ARG_OF_PERICENTER": 133.2158, "MEAN_ANOMALY": 226.9383, "EPHEMERIS_TYPE": 0, "CLASSIFICATION_TYPE": "U", "NORAD_CAT_ID": 67143, "ELEMENT_SET_NO": 999, "REV_AT_EPOCH": 247, "BSTAR": 0.00063985007, "MEAN_MOTION_DOT": 0.00021867, "MEAN_MOTION_DDOT": 0}, "tle": {"line1": "1 67143U 25301L   25360.24561703  .00021867  00000+0  63985-3 0  9993", "line2": "2 67143  51.8673  60.0257 0006641 133.2158 226.9383 15.35163577  2472"}}, "geometry": {"type": "Point", "coordinates": [-122.6709948444314, 1.236932867777659]}}, {"type": "Feature", "properties": {"norad_id": 67144, "name": "KUIPER-00196", "group": "last-30-days", "lat": -24.33695913277931, "lon": -100.962600969131, "alt_km": 462.0074768919849, "timestamp": "2025-12-26T14:28:46.399949+00:00", "meta": {"OBJECT_NAME": "KUIPER-00196", "OBJECT_ID": "2025-301M", "EPOCH": "2025-12-26T04:11:39.158592", "MEAN_MOTION": 15.36037834, "ECCENTRICITY": 0.00038702, "INCLINATION": 51.8728, "RA_OF_ASC_NODE": 60.2981, "ARG_OF_PERICENTER": 99.5207, "MEAN_ANOMALY": 260.6217, "EPHEMERIS_TYPE": 0, "CLASSIFICATION_TYPE": "U", "NORAD_CAT_ID": 67144, "ELEMENT_SET_NO": 999, "REV_AT_EPOCH": 243, "BSTAR": 0.00059609193, "MEAN_MOTION_DOT": 0.00020919, "MEAN_MOTION_DDOT": 0}, "tle": {"line1": "1 67144U 25301M   25360.17475878  .00020919  00000+0  59609-3 0  9998", "line2": "2 67144  51.8728  60.2981 0003870  99.5207 260.6217 15.36037834  2434"}}, "geometry": {"type": "Point", "coordinates": [-100.962600969131, -24.33695913277931]}}, {"type": "Feature", "properties": {"norad_id": 67145, "name": "KUIPER-00204", "group": "last-30-days", "lat": -37.389699994247096, "lon": -84.92903542782615, "alt_km": 461.7207716753155, "timestamp": "2025-12-26T14:28:46.399959+00:00", "meta": {"OBJECT_NAME": "KUIPER-00204", "OBJECT_ID": "2025-301N", "EPOCH": "2025-12-26T05:40:34.003488", "MEAN_MOTION": 15.36552666, "ECCENTRICITY": 0.00020267, "INCLINATION": 51.8746, "RA_OF_ASC_NODE": 59.9562, "ARG_OF_PERICENTER": 61.7171, "MEAN_ANOMALY": 298.402, "EPHEMERIS_TYPE": 0, "CLASSIFICATION_TYPE": "U", "NORAD_CAT_ID": 67145, "ELEMENT_SET_NO": 999, "REV_AT_EPOCH": 255, "BSTAR": 0.00076412733, "MEAN_MOTION_DOT": 0.000274, "MEAN_MOTION_DDOT": 0}, "tle": {"line1": "1 67145U 25301N   25360.23650467  .00027400  00000+0  76413-3 0  9999", "line2": "2 67145  51.8746  59.9562 0002026  61.7171 298.4020 15.36552666  2557"}}, "geometry": {"type": "Point", "coordinates": [-84.92903542782615, -37.389699994247096]}}, {"type": "Feature", "properties": {"norad_id": 67146, "name": "KUIPER-00210", "group": "last-30-days", "lat": 29.797894497594392, "lon": -148.36620106518342, "alt_km": 452.4359132847867, "timestamp": "2025-12-26T14:28:46.399971+00:00", "meta": {"OBJECT_NAME": "KUIPER-00210", "OBJECT_ID": "2025-301P", "EPOCH": "2025-12-26T06:03:08.258688", "MEAN_MOTION": 15.34182203, "ECCENTRICITY": 0.00105902, "INCLINATION": 51.8604, "RA_OF_ASC_NODE": 60.0669, "ARG_OF_PERICENTER": 150.565, "MEAN_ANOMALY": 209.5934, "EPHEMERIS_TYPE": 0, "CLASSIFICATION_TYPE": "U", "NORAD_CAT_ID": 67146, "ELEMENT_SET_NO": 999, "REV_AT_EPOCH": 261, "BSTAR": 0.00083974478, "MEAN_MOTION_DOT": 0.00027975, "MEAN_MOTION_DDOT": 0}, "tle": {"line1": "1 67146U 25301P   25360.25217892  .00027975  00000+0  83974-3 0  9990", "line2": "2 67146  51.8604  60.0669 0010590 150.5650 209.5934 15.34182203  2614"}}, "geometry": {"type": "Point", "coordinates": [-148.36620106518342, 29.797894497594392]}}, {"type": "Feature", "properties": {"norad_id": 67147, "name": "KUIPER-00221", "group": "last-30-days", "lat": -15.411338011849343, "lon": -109.23982532170635, "alt_km": 460.7839365512664, "timestamp": "2025-12-26T14:28:46.399981+00:00", "meta": {"OBJECT_NAME": "KUIPER-00221", "OBJECT_ID": "2025-301Q", "EPOCH": "2025-12-26T05:48:20.067552", "MEAN_MOTION": 15.35746838, "ECCENTRICITY": 0.00048528, "INCLINATION": 51.8728, "RA_OF_ASC_NODE": 60.0002, "ARG_OF_PERICENTER": 114.5931, "MEAN_ANOMALY": 245.5561, "EPHEMERIS_TYPE": 0, "CLASSIFICATION_TYPE": "U", "NORAD_CAT_ID": 67147, "ELEMENT_SET_NO": 999, "REV_AT_EPOCH": 244, "BSTAR": 0.0010525439, "MEAN_MOTION_DOT": 0.00036969, "MEAN_MOTION_DDOT": 0}, "tle": {"line1": "1 67147U 25301Q   25360.24189893  .00036969  00000+0  10525-2 0  9993", "line2": "2 67147  51.8728  60.0002 0004852 114.5931 245.5561 15.35746838  2447"}}, "geometry": {"type": "Point", "coordinates": [-109.23982532170635, -15.411338011849343]}}, {"type": "Feature", "properties": {"norad_id": 67148, "name": "KUIPER-00232", "group": "last-30-days", "lat": -41.259653221481464, "lon": -78.2756424757106, "alt_km": 461.1577329019283, "timestamp": "2025-12-26T14:28:46.399991+00:00", "meta": {"OBJECT_NAME": "KUIPER-00232", "OBJECT_ID": "2025-301R", "EPOCH": "2025-12-26T05:38:56.447520", "MEAN_MOTION": 15.36711464, "ECCENTRICITY": 0.00016144, "INCLINATION": 51.8747, "RA_OF_ASC_NODE": 59.9527, "ARG_OF_PERICENTER": 50.4264, "MEAN_ANOMALY": 309.6865, "EPHEMERIS_TYPE": 0, "CLASSIFICATION_TYPE": "U", "NORAD_CAT_ID": 67148, "ELEMENT_SET_NO": 999, "REV_AT_EPOCH": 244, "BSTAR": 0.00096056868, "MEAN_MOTION_DOT": 0.00034755, "MEAN_MOTION_DDOT": 0}, "tle": {"line1": "1 67148U 25301R   25360.23537555  .00034755  00000+0  96057-3 0  9991", "line2": "2 67148  51.8747  59.9527 0001614  50.4264 309.6865 15.36711464  2445"}}, "geometry": {"type": "Point", "coordinates": [-78.2756424757106, -41.259653221481464]}}, {"type": "Feature", "properties": {"norad_id": 67149, "name": "KUIPER-00241", "group": "last-30-days", "lat": -29.93990778646406, "lon": -94.89367792651315, "alt_km": 462.1929264805076, "timestamp": "2025-12-26T14:28:46.400001+00:00", "meta": {"OBJECT_NAME": "KUIPER-00241", "OBJECT_ID": "2025-301S", "EPOCH": "2025-12-26T05:43:22.960416", "MEAN_MOTION": 15.36265873, "ECCENTRICITY": 0.00028152, "INCLINATION": 51.8742, "RA_OF_ASC_NODE": 59.9742, "ARG_OF_PERICENTER": 80.0264, "MEAN_ANOMALY": 280.104, "EPHEMERIS_TYPE": 0, "CLASSIFICATION_TYPE": "U", "NORAD_CAT_ID": 67149, "ELEMENT_SET_NO": 999, "REV_AT_EPOCH": 277, "BSTAR": 0.0011783928, "MEAN_MOTION_DOT": 0.00042156, "MEAN_MOTION_DDOT": 0}, "tle": {"line1": "1 67149U 25301S   25360.23846019  .00042156  00000+0  11784-2 0  9997", "line2": "2 67149  51.8742  59.9742 0002815  80.0264 280.1040 15.36265873  2775"}}, "geometry": {"type": "Point", "coordinates": [-94.89367792651315, -29.93990778646406]}}, {"type": "Feature", "properties": {"norad_id": 67150, "name": "KUIPER-00245", "group": "last-30-days", "lat": -12.76334898288821, "lon": -111.49028386178105, "alt_km": 460.17509689623694, "timestamp": "2025-12-26T14:28:46.400013+00:00", "meta": {"OBJECT_NAME": "KUIPER-00245", "OBJECT_ID": "2025-301T", "EPOCH": "2025-12-26T05:49:11.600832", "MEAN_MOTION": 15.3565545, "ECCENTRICITY": 0.00046155, "INCLINATION": 51.8743, "RA_OF_ASC_NODE": 60.0028, "ARG_OF_PERICENTER": 123.4828, "MEAN_ANOMALY": 236.6599, "EPHEMERIS_TYPE": 0, "CLASSIFICATION_TYPE": "U", "NORAD_CAT_ID": 67150, "ELEMENT_SET_NO": 999, "REV_AT_EPOCH": 244, "BSTAR": 0.00068679542, "MEAN_MOTION_DOT": 0.00023875, "MEAN_MOTION_DDOT": 0}, "tle": {"line1": "1 67150U 25301T   25360.24249538  .00023875  00000+0  68680-3 0  9998", "line2": "2 67150  51.8743  60.0028 0004615 123.4828 236.6599 15.35655450  2448"}}, "geometry": {"type": "Point", "coordinates": [-111.49028386178105, -12.76334898288821]}}]}